[{"OBJECT_NAME":"KUIPER-00029","OBJECT_ID":"2025-088U","EPOCH":"2026-03-09T22:00:01.999584","MEAN_MOTION":14.81069355,"ECCENTRICITY":9.383e-5,"INCLINATION":51.9005,"RA_OF_ASC_NODE":89.6043,"ARG_OF_PERICENTER":137.8854,"MEAN_ANOMALY":294.3831,"EPHEMERIS_TYPE":0,"CLASSIFICATION_TYPE":"U","NORAD_CAT_ID":63742,"ELEMENT_SET_NO":999,"REV_AT_EPOCH":574,"BSTAR":0.002151491,"MEAN_MOTION_DOT":0.00016671,"MEAN_MOTION_DDOT":0},{"OBJECT_NAME":"DMSP 5D-2 F13 DEB","OBJECT_ID":"1995-015GM","EPOCH":"2026-03-09T04:00:03.324096","MEAN_MOTION":14.82710819,"ECCENTRICITY":0.00051735,"INCLINATION":98.6787,"RA_OF_ASC_NODE":143.1524,"ARG_OF_PERICENTER":206.3109,"MEAN_ANOMALY":153.784,"EPHEMERIS_TYPE":0,"CLASSIFICATION_TYPE":"U","NORAD_CAT_ID":42271,"ELEMENT_SET_NO":999,"REV_AT_EPOCH":55741,"BSTAR":0.0052664935,"MEAN_MOTION_DOT":0.00042707,"MEAN_MOTION_DDOT":0}]
